[{"OBJECT_NAME":"STARLINK-4455","OBJECT_ID":"2022-099AM","EPOCH":"2026-03-09T22:26:49.444800","MEAN_MOTION":15.05645126,"ECCENTRICITY":0.00010873,"INCLINATION":97.6034,"RA_OF_ASC_NODE":191.5471,"ARG_OF_PERICENTER":99.63,"MEAN_ANOMALY":260.505,"EPHEMERIS_TYPE":0,"CLASSIFICATION_TYPE":"U","NORAD_CAT_ID":53500,"ELEMENT_SET_NO":999,"REV_AT_EPOCH":19609,"BSTAR":2.2406257e-5,"MEAN_MOTION_DOT":2.63e-6,"MEAN_MOTION_DDOT":0},{"OBJECT_NAME":"HAMSAT (VO-52)","OBJECT_ID":"2005-017B","EPOCH":"2026-03-09T22:34:09.009120","MEAN_MOTION":15.08773202,"ECCENTRICITY":0.00200128,"INCLINATION":97.9995,"RA_OF_ASC_NODE":87.8294,"ARG_OF_PERICENTER":17.3795,"MEAN_ANOMALY":342.8113,"EPHEMERIS_TYPE":0,"CLASSIFICATION_TYPE":"U","NORAD_CAT_ID":28650,"ELEMENT_SET_NO":999,"REV_AT_EPOCH":13179,"BSTAR":0.00045282519,"MEAN_MOTION_DOT":7.08e-5,"MEAN_MOTION_DDOT":0}]
